[
{"CCSDS_OMM_VERS":"2.0",
"COMMENT":"GENERATED VIA SPACE-TRACK.ORG API",
"CREATION_DATE":"2022-10-10T19:48:21",
"ORIGINATOR":"18 SPCS",
"OBJECT_NAME":"VANGUARD 1",
"OBJECT_ID":"1958-002B",
"CENTER_NAME":"EARTH",
"REF_FRAME":"TEME",
"TIME_SYSTEM":"UTC",
"MEAN_ELEMENT_THEORY":"SGP4",
"EPOCH":"2022-10-10T06:40:26.700384",
"MEAN_MOTION":"10.85018581",
"ECCENTRICITY":"0.18464900",
"INCLINATION":"34.2474",
"RA_OF_ASC_NODE":"145.5298",
"ARG_OF_PERICENTER":"194.4205",
"MEAN_ANOMALY":"159.5827",
"EPHEMERIS_TYPE":"0",
"CLASSIFICATION_TYPE":"U",
"NORAD_CAT_ID":"5",
"ELEMENT_SET_NO":"999",
"REV_AT_EPOCH":"29701",
"BSTAR":"0.00036608000000",
"MEAN_MOTION_DOT":"0.00000304",
"MEAN_MOTION_DDOT":"0.0000000000000",
"SEMIMAJOR_AXIS":"8618.739",
"PERIOD":"132.717",
"APOAPSIS":"3832.045",
"PERIAPSIS":"649.162",
"OBJECT_TYPE":"PAYLOAD",
"RCS_SIZE":"SMALL",
"COUNTRY_CODE":"US",
"LAUNCH_DATE":"1958-03-17",
"SITE":"AFETR",
"DECAY_DATE":null,
"FILE":"3600948",
"GP_ID":"214653868",
"TLE_LINE0":"0 VANGUARD 1",
"TLE_LINE1":"1 00005U 58002B   22283.27808681  .00000304  00000-0  36608-3 0  9990",
"TLE_LINE2":"2 00005  34.2474 145.5298 1846490 194.4205 159.5827 10.85018581297015"},
{"CCSDS_OMM_VERS":"2.0",
"COMMENT":"GENERATED VIA SPACE-TRACK.ORG API",
"CREATION_DATE":"2022-10-11T02:08:25",
"ORIGINATOR":"18 SPCS",
"OBJECT_NAME":"VANGUARD 1",
"OBJECT_ID":"1958-002B",
"CENTER_NAME":"EARTH",
"REF_FRAME":"TEME",
"TIME_SYSTEM":"UTC",
"MEAN_ELEMENT_THEORY":"SGP4",
"EPOCH":"2022-10-10T19:55:27.435360",
"MEAN_MOTION":"10.85018888",
"ECCENTRICITY":"0.18465100",
"INCLINATION":"34.2478",
"RA_OF_ASC_NODE":"143.8279",
"ARG_OF_PERICENTER":"196.9072",
"MEAN_ANOMALY":"156.0905",
"EPHEMERIS_TYPE":"0",
"CLASSIFICATION_TYPE":"U",
"NORAD_CAT_ID":"5",
"ELEMENT_SET_NO":"999",
"REV_AT_EPOCH":"29707",
"BSTAR":"0.00036038000000",
"MEAN_MOTION_DOT":"0.00000300",
"MEAN_MOTION_DDOT":"0.0000000000000",
"SEMIMAJOR_AXIS":"8618.737",
"PERIOD":"132.717",
"APOAPSIS":"3832.061",
"PERIAPSIS":"649.144",
"OBJECT_TYPE":"PAYLOAD",
"RCS_SIZE":"SMALL",
"COUNTRY_CODE":"US",
"LAUNCH_DATE":"1958-03-17",
"SITE":"AFETR",
"DECAY_DATE":null,
"FILE":"3601747",
"GP_ID":"214696139",
"TLE_LINE0":"0 VANGUARD 1",
"TLE_LINE1":"1 00005U 58002B   22283.83017865  .00000300  00000-0  36038-3 0  9991",
"TLE_LINE2":"2 00005  34.2478 143.8279 1846510 196.9072 156.0905 10.85018888297076"},
{"CCSDS_OMM_VERS":"2.0",
"COMMENT":"GENERATED VIA SPACE-TRACK.ORG API",
"CREATION_DATE":"2022-10-10T22:46:13",
"ORIGINATOR":"18 SPCS",
"OBJECT_NAME":"VANGUARD 1",
"OBJECT_ID":"1958-002B",
"CENTER_NAME":"EARTH",
"REF_FRAME":"TEME",
"TIME_SYSTEM":"UTC",
"MEAN_ELEMENT_THEORY":"SGP4",
"EPOCH":"2022-10-10T19:55:27.435360",
"MEAN_MOTION":"10.85018888",
"ECCENTRICITY":"0.18465100",
"INCLINATION":"34.2478",
"RA_OF_ASC_NODE":"143.8279",
"ARG_OF_PERICENTER":"196.9072",
"MEAN_ANOMALY":"156.0905",
"EPHEMERIS_TYPE":"0",
"CLASSIFICATION_TYPE":"U",
"NORAD_CAT_ID":"5",
"ELEMENT_SET_NO":"999",
"REV_AT_EPOCH":"29717",
"BSTAR":"0.00036038000000",
"MEAN_MOTION_DOT":"0.00000300",
"MEAN_MOTION_DDOT":"0.0000000000000",
"SEMIMAJOR_AXIS":"8618.737",
"PERIOD":"132.717",
"APOAPSIS":"3832.061",
"PERIAPSIS":"649.144",
"OBJECT_TYPE":"PAYLOAD",
"RCS_SIZE":"SMALL",
"COUNTRY_CODE":"US",
"LAUNCH_DATE":"1958-03-17",
"SITE":"AFETR",
"DECAY_DATE":null,
"FILE":"3601204",
"GP_ID":"214683209",
"TLE_LINE0":"0 VANGUARD 1",
"TLE_LINE1":"1     5U 58002B   22283.83017865  .00000300  00000-0  36038-3 0  9991",
"TLE_LINE2":"2     5  34.2478 143.8279 1846510 196.9072 156.0905 10.85018888297177"},
{"CCSDS_OMM_VERS":"2.0",
"COMMENT":"GENERATED VIA SPACE-TRACK.ORG API",
"CREATION_DATE":"2022-10-11T19:33:09",
"ORIGINATOR":"18 SPCS",
"OBJECT_NAME":"VANGUARD 1",
"OBJECT_ID":"1958-002B",
"CENTER_NAME":"EARTH",
"REF_FRAME":"TEME",
"TIME_SYSTEM":"UTC",
"MEAN_ELEMENT_THEORY":"SGP4",
"EPOCH":"2022-10-10T22:07:57.598752",
"MEAN_MOTION":"10.85018936",
"ECCENTRICITY":"0.18465130",
"INCLINATION":"34.2479",
"RA_OF_ASC_NODE":"143.5443",
"ARG_OF_PERICENTER":"197.3215",
"MEAN_ANOMALY":"155.5105",
"EPHEMERIS_TYPE":"0",
"CLASSIFICATION_TYPE":"U",
"NORAD_CAT_ID":"5",
"ELEMENT_SET_NO":"999",
"REV_AT_EPOCH":"29708",
"BSTAR":"0.00035896000000",
"MEAN_MOTION_DOT":"0.00000299",
"MEAN_MOTION_DDOT":"0.0000000000000",
"SEMIMAJOR_AXIS":"8618.737",
"PERIOD":"132.717",
"APOAPSIS":"3832.063",
"PERIAPSIS":"649.141",
"OBJECT_TYPE":"PAYLOAD",
"RCS_SIZE":"SMALL",
"COUNTRY_CODE":"US",
"LAUNCH_DATE":"1958-03-17",
"SITE":"AFETR",
"DECAY_DATE":null,
"FILE":"3603543",
"GP_ID":"214761033",
"TLE_LINE0":"0 VANGUARD 1",
"TLE_LINE1":"1 00005U 58002B   22283.92219443  .00000299  00000-0  35896-3 0  9995",
"TLE_LINE2":"2 00005  34.2479 143.5443 1846513 197.3215 155.5105 10.85018936297085"},
{"CCSDS_OMM_VERS":"2.0",
"COMMENT":"GENERATED VIA SPACE-TRACK.ORG API",
"CREATION_DATE":"2022-10-12T02:34:44",
"ORIGINATOR":"18 SPCS",
"OBJECT_NAME":"VANGUARD 1",
"OBJECT_ID":"1958-002B",
"CENTER_NAME":"EARTH",
"REF_FRAME":"TEME",
"TIME_SYSTEM":"UTC",
"MEAN_ELEMENT_THEORY":"SGP4",
"EPOCH":"2022-10-11T20:12:59.932512",
"MEAN_MOTION":"10.85019438",
"ECCENTRICITY":"0.18465380",
"INCLINATION":"34.2486",
"RA_OF_ASC_NODE":"140.7081",
"ARG_OF_PERICENTER":"201.4654",
"MEAN_ANOMALY":"149.7422",
"EPHEMERIS_TYPE":"0",
"CLASSIFICATION_TYPE":"U",
"NORAD_CAT_ID":"5",
"ELEMENT_SET_NO":"999",
"REV_AT_EPOCH":"29718",
"BSTAR":"0.00034530000000",
"MEAN_MOTION_DOT":"0.00000289",
"MEAN_MOTION_DDOT":"0.0000000000000",
"SEMIMAJOR_AXIS":"8618.734",
"PERIOD":"132.717",
"APOAPSIS":"3832.081",
"PERIAPSIS":"649.117",
"OBJECT_TYPE":"PAYLOAD",
"RCS_SIZE":"SMALL",
"COUNTRY_CODE":"US",
"LAUNCH_DATE":"1958-03-17",
"SITE":"AFETR",
"DECAY_DATE":null,
"FILE":"3604484",
"GP_ID":"214800506",
"TLE_LINE0":"0 VANGUARD 1",
"TLE_LINE1":"1 00005U 58002B   22284.84236033  .00000289  00000-0  34530-3 0  9994",
"TLE_LINE2":"2 00005  34.2486 140.7081 1846538 201.4654 149.7422 10.85019438297187"},
{"CCSDS_OMM_VERS":"2.0",
"COMMENT":"GENERATED VIA SPACE-TRACK.ORG API",
"CREATION_DATE":"2022-10-12T18:00:15",
"ORIGINATOR":"18 SPCS",
"OBJECT_NAME":"VANGUARD 1",
"OBJECT_ID":"1958-002B",
"CENTER_NAME":"EARTH",
"REF_FRAME":"TEME",
"TIME_SYSTEM":"UTC",
"MEAN_ELEMENT_THEORY":"SGP4",
"EPOCH":"2022-10-12T07:15:31.616064",
"MEAN_MOTION":"10.85019730",
"ECCENTRICITY":"0.18465540",
"INCLINATION":"34.2490",
"RA_OF_ASC_NODE":"139.2900",
"ARG_OF_PERICENTER":"203.5373",
"MEAN_ANOMALY":"146.8827",
"EPHEMERIS_TYPE":"0",
"CLASSIFICATION_TYPE":"U",
"NORAD_CAT_ID":"5",
"ELEMENT_SET_NO":"999",
"REV_AT_EPOCH":"29723",
"BSTAR":"0.00033985000000",
"MEAN_MOTION_DOT":"0.00000285",
"MEAN_MOTION_DDOT":"0.0000000000000",
"SEMIMAJOR_AXIS":"8618.733",
"PERIOD":"132.716",
"APOAPSIS":"3832.093",
"PERIAPSIS":"649.102",
"OBJECT_TYPE":"PAYLOAD",
"RCS_SIZE":"SMALL",
"COUNTRY_CODE":"US",
"LAUNCH_DATE":"1958-03-17",
"SITE":"AFETR",
"DECAY_DATE":null,
"FILE":"3606148",
"GP_ID":"214859619",
"TLE_LINE0":"0 VANGUARD 1",
"TLE_LINE1":"1 00005U 58002B   22285.30244926  .00000285  00000-0  33985-3 0  9995",
"TLE_LINE2":"2 00005  34.2490 139.2900 1846554 203.5373 146.8827 10.85019730297232"},
{"CCSDS_OMM_VERS":"2.0",
"COMMENT":"GENERATED VIA SPACE-TRACK.ORG API",
"CREATION_DATE":"2022-10-13T02:28:01",
"ORIGINATOR":"18 SPCS",
"OBJECT_NAME":"VANGUARD 1",
"OBJECT_ID":"1958-002B",
"CENTER_NAME":"EARTH",
"REF_FRAME":"TEME",
"TIME_SYSTEM":"UTC",
"MEAN_ELEMENT_THEORY":"SGP4",
"EPOCH":"2022-10-12T20:30:34.174944",
"MEAN_MOTION":"10.85019931",
"ECCENTRICITY":"0.18465840",
"INCLINATION":"34.2495",
"RA_OF_ASC_NODE":"137.5882",
"ARG_OF_PERICENTER":"206.0235",
"MEAN_ANOMALY":"143.4755",
"EPHEMERIS_TYPE":"0",
"CLASSIFICATION_TYPE":"U",
"NORAD_CAT_ID":"5",
"ELEMENT_SET_NO":"999",
"REV_AT_EPOCH":"29729",
"BSTAR":"0.00030650000000",
"MEAN_MOTION_DOT":"0.00000259",
"MEAN_MOTION_DDOT":"0.0000000000000",
"SEMIMAJOR_AXIS":"8618.732",
"PERIOD":"132.716",
"APOAPSIS":"3832.118",
"PERIAPSIS":"649.076",
"OBJECT_TYPE":"PAYLOAD",
"RCS_SIZE":"SMALL",
"COUNTRY_CODE":"US",
"LAUNCH_DATE":"1958-03-17",
"SITE":"AFETR",
"DECAY_DATE":null,
"FILE":"3606891",
"GP_ID":"214900278",
"TLE_LINE0":"0 VANGUARD 1",
"TLE_LINE1":"1 00005U 58002B   22285.85456221  .00000259  00000-0  30650-3 0  9995",
"TLE_LINE2":"2 00005  34.2495 137.5882 1846584 206.0235 143.4755 10.85019931297297"},
{"CCSDS_OMM_VERS":"2.0",
"COMMENT":"GENERATED VIA SPACE-TRACK.ORG API",
"CREATION_DATE":"2022-10-13T22:22:33",
"ORIGINATOR":"18 SPCS",
"OBJECT_NAME":"VANGUARD 1",
"OBJECT_ID":"1958-002B",
"CENTER_NAME":"EARTH",
"REF_FRAME":"TEME",
"TIME_SYSTEM":"UTC",
"MEAN_ELEMENT_THEORY":"SGP4",
"EPOCH":"2022-10-12T22:43:04.659744",
"MEAN_MOTION":"10.85019980",
"ECCENTRICITY":"0.18465870",
"INCLINATION":"34.2495",
"RA_OF_ASC_NODE":"137.3046",
"ARG_OF_PERICENTER":"206.4378",
"MEAN_ANOMALY":"142.9104",
"EPHEMERIS_TYPE":"0",
"CLASSIFICATION_TYPE":"U",
"NORAD_CAT_ID":"5",
"ELEMENT_SET_NO":"999",
"REV_AT_EPOCH":"29730",
"BSTAR":"0.00030320000000",
"MEAN_MOTION_DOT":"0.00000257",
"MEAN_MOTION_DDOT":"0.0000000000000",
"SEMIMAJOR_AXIS":"8618.731",
"PERIOD":"132.716",
"APOAPSIS":"3832.120",
"PERIAPSIS":"649.073",
"OBJECT_TYPE":"PAYLOAD",
"RCS_SIZE":"SMALL",
"COUNTRY_CODE":"US",
"LAUNCH_DATE":"1958-03-17",
"SITE":"AFETR",
"DECAY_DATE":null,
"FILE":"3609209",
"GP_ID":"214971453",
"TLE_LINE0":"0 VANGUARD 1",
"TLE_LINE1":"1 00005U 58002B   22285.94658171  .00000257  00000-0  30320-3 0  9995",
"TLE_LINE2":"2 00005  34.2495 137.3046 1846587 206.4378 142.9104 10.85019980297300"}]